[{"OBJECT_NAME":"KUIPER-00078","OBJECT_ID":"2025-151K","EPOCH":"2026-03-09T22:25:22.408032","MEAN_MOTION":14.79910308,"ECCENTRICITY":9.148e-5,"INCLINATION":51.901,"RA_OF_ASC_NODE":294.5072,"ARG_OF_PERICENTER":57.8645,"MEAN_ANOMALY":302.2406,"EPHEMERIS_TYPE":0,"CLASSIFICATION_TYPE":"U","NORAD_CAT_ID":64825,"ELEMENT_SET_NO":999,"REV_AT_EPOCH":3541,"BSTAR":-0.00014297297,"MEAN_MOTION_DOT":-1.31e-5,"MEAN_MOTION_DDOT":0},{"OBJECT_NAME":"COSMOS 2251 DEB","OBJECT_ID":"1993-036AKD","EPOCH":"2026-03-07T21:53:24.851616","MEAN_MOTION":14.8143349,"ECCENTRICITY":0.00072163,"INCLINATION":74.009,"RA_OF_ASC_NODE":296.0449,"ARG_OF_PERICENTER":6.5843,"MEAN_ANOMALY":11.0379,"EPHEMERIS_TYPE":0,"CLASSIFICATION_TYPE":"U","NORAD_CAT_ID":35435,"ELEMENT_SET_NO":999,"REV_AT_EPOCH":88799,"BSTAR":0.0025496994,"MEAN_MOTION_DOT":0.00019995,"MEAN_MOTION_DDOT":0}]
